{
  "links" : {
    "next" : "https://api.nasa.gov/neo/rest/v1/feed?start_date=2008-08-23&end_date=2008-08-23&detailed=true&api_key=t0TVs3DtDT2H8Oy2Zy8m2eVrNsAVKAexjcZXUckd",
    "prev" : "https://api.nasa.gov/neo/rest/v1/feed?start_date=2008-08-21&end_date=2008-08-21&detailed=true&api_key=t0TVs3DtDT2H8Oy2Zy8m2eVrNsAVKAexjcZXUckd",
    "self" : "https://api.nasa.gov/neo/rest/v1/feed?start_date=2008-08-22&end_date=2008-08-22&detailed=true&api_key=t0TVs3DtDT2H8Oy2Zy8m2eVrNsAVKAexjcZXUckd"
  },
  "element_count" : 6,
  "near_earth_objects" : {
    "2008-08-22" : [ {
      "links" : {
        "self" : "https://api.nasa.gov/neo/rest/v1/neo/3424289?api_key=t0TVs3DtDT2H8Oy2Zy8m2eVrNsAVKAexjcZXUckd"
      },
      "neo_reference_id" : "3424289",
      "name" : "(2008 PV16)",
      "nasa_jpl_url" : "http://ssd.jpl.nasa.gov/sbdb.cgi?sstr=3424289",
      "absolute_magnitude_h" : 21.3,
      "estimated_diameter" : {
        "kilometers" : {
          "estimated_diameter_min" : 0.1460679643,
          "estimated_diameter_max" : 0.3266178974
        },
        "meters" : {
          "estimated_diameter_min" : 146.0679642714,
          "estimated_diameter_max" : 326.6178974458
        },
        "miles" : {
          "estimated_diameter_min" : 0.090762397,
          "estimated_diameter_max" : 0.2029508896
        },
        "feet" : {
          "estimated_diameter_min" : 479.2256199,
          "estimated_diameter_max" : 1071.581062656
        }
      },
      "is_potentially_hazardous_asteroid" : false,
      "close_approach_data" : [ {
        "close_approach_date" : "2008-08-22",
        "epoch_date_close_approach" : 1219388400000,
        "relative_velocity" : {
          "kilometers_per_second" : "23.1923140366",
          "kilometers_per_hour" : "83492.3305317128",
          "miles_per_hour" : "51878.8872684412"
        },
        "miss_distance" : {
          "astronomical" : "0.0657877411",
          "lunar" : "25.5914306641",
          "kilometers" : "9841706",
          "miles" : "6115352.5"
        },
        "orbiting_body" : "Earth"
      } ],
      "orbital_data" : {
        "orbit_id" : "14",
        "orbit_determination_date" : "2017-04-06 09:03:05",
        "orbit_uncertainty" : "9",
        "minimum_orbit_intersection" : ".0657722",
        "jupiter_tisserand_invariant" : "3.592",
        "epoch_osculation" : "2454694.5",
        "eccentricity" : ".5909161563388491",
        "semi_major_axis" : "1.864521680868988",
        "inclination" : "33.90128522177738",
        "ascending_node_longitude" : "146.2486950295823",
        "orbital_period" : "929.9285546755926",
        "perihelion_distance" : ".7627456957994352",
        "perihelion_argument" : "260.2001123505798",
        "aphelion_distance" : "2.966297665938539",
        "perihelion_time" : "2454752.928584386263",
        "mean_anomaly" : "337.3807457860109",
        "mean_motion" : ".3871265143864592",
        "equinox" : "J2000"
      }
    }, {
      "links" : {
        "self" : "https://api.nasa.gov/neo/rest/v1/neo/3426409?api_key=t0TVs3DtDT2H8Oy2Zy8m2eVrNsAVKAexjcZXUckd"
      },
      "neo_reference_id" : "3426409",
      "name" : "(2008 QU11)",
      "nasa_jpl_url" : "http://ssd.jpl.nasa.gov/sbdb.cgi?sstr=3426409",
      "absolute_magnitude_h" : 25.5,
      "estimated_diameter" : {
        "kilometers" : {
          "estimated_diameter_min" : 0.0211132445,
          "estimated_diameter_max" : 0.0472106499
        },
        "meters" : {
          "estimated_diameter_min" : 21.113244479,
          "estimated_diameter_max" : 47.2106498806
        },
        "miles" : {
          "estimated_diameter_min" : 0.0131191578,
          "estimated_diameter_max" : 0.0293353287
        },
        "feet" : {
          "estimated_diameter_min" : 69.2691770164,
          "estimated_diameter_max" : 154.8905885541
        }
      },
      "is_potentially_hazardous_asteroid" : false,
      "close_approach_data" : [ {
        "close_approach_date" : "2008-08-22",
        "epoch_date_close_approach" : 1219388400000,
        "relative_velocity" : {
          "kilometers_per_second" : "11.8522841714",
          "kilometers_per_hour" : "42668.2230170123",
          "miles_per_hour" : "26512.3744629874"
        },
        "miss_distance" : {
          "astronomical" : "0.0198248442",
          "lunar" : "7.7118644714",
          "kilometers" : "2965754.5",
          "miles" : "1842834.375"
        },
        "orbiting_body" : "Earth"
      } ],
      "orbital_data" : {
        "orbit_id" : "9",
        "orbit_determination_date" : "2017-04-06 09:03:03",
        "orbit_uncertainty" : "8",
        "minimum_orbit_intersection" : ".0198165",
        "jupiter_tisserand_invariant" : "3.922",
        "epoch_osculation" : "2454706.5",
        "eccentricity" : ".4963469373997308",
        "semi_major_axis" : "1.785292896082656",
        "inclination" : "7.993740759163964",
        "ascending_node_longitude" : "156.8268464706979",
        "orbital_period" : "871.2898246881217",
        "perihelion_distance" : ".8991682347505338",
        "perihelion_argument" : "122.7531099284209",
        "aphelion_distance" : "2.671417557414777",
        "perihelion_time" : "2454662.371139611478",
        "mean_anomaly" : "18.23318635168781",
        "mean_motion" : ".4131805397002795",
        "equinox" : "J2000"
      }
    }, {
      "links" : {
        "self" : "https://api.nasa.gov/neo/rest/v1/neo/3275974?api_key=t0TVs3DtDT2H8Oy2Zy8m2eVrNsAVKAexjcZXUckd"
      },
      "neo_reference_id" : "3275974",
      "name" : "(2005 GN22)",
      "nasa_jpl_url" : "http://ssd.jpl.nasa.gov/sbdb.cgi?sstr=3275974",
      "absolute_magnitude_h" : 26.5,
      "estimated_diameter" : {
        "kilometers" : {
          "estimated_diameter_min" : 0.0133215567,
          "estimated_diameter_max" : 0.0297879063
        },
        "meters" : {
          "estimated_diameter_min" : 13.3215566698,
          "estimated_diameter_max" : 29.7879062798
        },
        "miles" : {
          "estimated_diameter_min" : 0.008277629,
          "estimated_diameter_max" : 0.0185093411
        },
        "feet" : {
          "estimated_diameter_min" : 43.7058959846,
          "estimated_diameter_max" : 97.7293544391
        }
      },
      "is_potentially_hazardous_asteroid" : false,
      "close_approach_data" : [ {
        "close_approach_date" : "2008-08-22",
        "epoch_date_close_approach" : 1219388400000,
        "relative_velocity" : {
          "kilometers_per_second" : "6.2111060298",
          "kilometers_per_hour" : "22359.9817072979",
          "miles_per_hour" : "13893.6230780707"
        },
        "miss_distance" : {
          "astronomical" : "0.4221501369",
          "lunar" : "164.2164001465",
          "kilometers" : "63152760",
          "miles" : "39241308"
        },
        "orbiting_body" : "Earth"
      } ],
      "orbital_data" : {
        "orbit_id" : "7",
        "orbit_determination_date" : "2017-04-06 09:11:09",
        "orbit_uncertainty" : "7",
        "minimum_orbit_intersection" : ".0218128",
        "jupiter_tisserand_invariant" : "5.023",
        "epoch_osculation" : "2458000.5",
        "eccentricity" : ".2054013093479347",
        "semi_major_axis" : "1.284387938846949",
        "inclination" : "2.196942294237011",
        "ascending_node_longitude" : "187.9150676326761",
        "orbital_period" : "531.6707336820732",
        "perihelion_distance" : "1.02057297449709",
        "perihelion_argument" : "18.00979873299237",
        "aphelion_distance" : "1.548202903196807",
        "perihelion_time" : "2458260.729500716108",
        "mean_anomaly" : "183.7957925406161",
        "mean_motion" : ".6771108078619044",
        "equinox" : "J2000"
      }
    } ]
  }
}